COSMOS 2425 (716)       
1 29670U 06062A   17333.67281038 -.00000010  00000-0  10000-3 0  9996
2 29670  65.3805 299.2770 0021770 338.8290  30.9891  2.13104965 85069
COSMOS 2426 (717)       
1 29671U 06062B   17334.07070936 -.00000012  00000-0  10000-3 0  9997
2 29671  65.3972 299.3577 0017262 173.4501 358.7659  2.13103081 85072
COSMOS 2433 (720)       
1 32275U 07052A   17333.56208233 -.00000039  00000-0  10000-3 0  9996
2 32275  65.5918  60.0679 0003051 238.2317 238.4851  2.13104790 78573
COSMOS 2432 (719)       
1 32276U 07052B   17334.40281753 -.00000038  00000-0  10000-3 0  9998
2 32276  65.6043  60.1125 0010027 332.3324  21.8369  2.13103885 78589
COSMOS 2434 (721)       
1 32393U 07065A   17334.30378098 -.00000014  00000-0  00000+0 0  9999
2 32393  64.9958 298.3254 0001993 146.1066  68.4148  2.13102916 77293
COSMOS 2436 (723)       
1 32395U 07065C   17333.50122990 -.00000010  00000-0  10000-3 0  9991
2 32395  65.0050 298.4016 0014951 350.0878  18.2565  2.13104276 77211
COSMOS 2456 (730)       
1 36111U 09070A   17334.35450487  .00000125  00000-0  00000+0 0  9999
2 36111  64.1788 177.8968 0003402 342.4264  82.6927  2.13102967 61965
COSMOS 2457 (733)       
1 36112U 09070B   17334.34196566  .00000125  00000-0  00000+0 0  9994
2 36112  64.1610 177.8132 0006796 151.1196  32.1970  2.13101676 61965
COSMOS 2458 (734)       
1 36113U 09070C   17334.44715740  .00000125  00000-0  10000-3 0  9992
2 36113  64.1658 177.8189 0002815  54.3015 257.8255  2.13101930 61967
COSMOS 2459 (731)       
1 36400U 10007A   17333.67471793 -.00000039  00000-0  10000-3 0  9999
2 36400  65.5007  59.1494 0025787 351.9647  71.8042  2.13102112 60308
COSMOS 2461 (735)       
1 36401U 10007B   17333.74001159 -.00000039  00000-0  10000-3 0  9993
2 36401  65.4943  59.1235 0006392  78.7726 305.6920  2.13101993 60302
COSMOS 2460 (732)       
1 36402U 10007C   17333.73248624 -.00000039  00000-0  10000-3 0  9993
2 36402  65.4849  59.0954 0001088 167.7456 251.9353  2.13101658 60302
COSMOS 2464 (736)       
1 37139U 10041C   17333.49052934 -.00000011  00000-0  00000-0 0  9995
2 37139  64.6013 298.2603 0022720   5.9193 172.4491  2.13102700 56369
COSMOS 2471 (701K)      
1 37372U 11009A   17333.58357309 -.00000039  00000-0  00000-0 0  9993
2 37372  65.4809  59.0458 0008712 227.7143 217.4057  2.13107709 52576
COSMOS 2474 (742)       
1 37829U 11055A   17333.72057861  .00000122  00000-0  00000-0 0  9999
2 37829  64.5031 178.5522 0006531 241.9796 275.8443  2.13101911 47949
COSMOS 2476 (744)       
1 37867U 11064A   17334.38674525  .00000125  00000-0  00000+0 0  9998
2 37867  64.4844 178.5969 0016061 239.4559 115.4101  2.13102001 47306
COSMOS 2477 (745)       
1 37868U 11064B   17334.30609094  .00000124  00000-0  00000+0 0  9999
2 37868  64.4912 178.6478 0013896 240.6995 231.3343  2.13101824 47263
COSMOS 2475 (743)       
1 37869U 11064C   17334.17803572  .00000124  00000-0  00000+0 0  9992
2 37869  64.4996 178.6430 0018233 270.0980  60.2676  2.13102151 47267
COSMOS 2485 (747)       
1 39155U 13019A   17333.91197041  .00000123  00000-0  00000-0 0  9992
2 39155  64.6534 178.6800 0016605 234.0021 161.6083  2.13102017 35777
COSMOS 2492 (754)       
1 39620U 14012A   17333.83177697 -.00000039  00000-0  10000-3 0  9990
2 39620  65.3749  59.0039 0013477 327.7974  40.7478  2.13103414 28721
COSMOS 2500 (755)       
1 40001U 14032A   17334.45718003 -.00000039  00000-0  00000+0 0  9993
2 40001  65.3155  58.9680 0007109 201.4253 149.6044  2.13102693 26948
COSMOS 2501 (702K)      
1 40315U 14075A   17333.53989374 -.00000011  00000-0  00000-0 0  9998
2 40315  64.3259 299.5407 0016371 213.7794 317.5221  2.13098535 23339
COSMOS 2514 (751)       
1 41330U 16008A   17334.39159029 -.00000039  00000-0  00000+0 0  9994
2 41330  65.1170  59.0732 0010390 212.1704 268.9574  2.13103346 14110
COSMOS 2516 (753)       
1 41554U 16032A   17333.59793115 -.00000011  00000-0  00000-0 0  9991
2 41554  64.5458 299.3489 0013893 227.7510 256.3149  2.13101700 11709
COSMOS 2522 (752)       
1 42939U 17055A   17334.37772671 -.00000015  00000-0  00000+0 0  9999
2 42939  64.7764 299.2299 0009831 253.8314 334.8306  2.13101944  1476
